,RANK,REG,CODE,Airport,Airport location,Passengers 2011,Passengers 2010,% Change,carriers,city,country,direct_flights,elev,email,icao,lat,lon,name,phone,runway_length,state,type,tz,url,woeid
0,1,NAM,ATL,"ATLANTA GA, US (ATL)","ATLANTA GA, US (ATL) Airport",92365860,89292748,3.3,60,Atlanta,United States,253,1026,,KATL,33.6558,-84.4333,Hartsfield-Jackson Atlanta International Airport,(654) 57 8833,11889,Georgia,Airports,America/New_York,http://www.atlanta-airport.com/,12522118
1,2,ASP,PEK,"BEIJING, CN (PEK)","BEIJING, CN (PEK) Airport",77403668,73913402,4.5,84,Shunyi,China,165,115,,ZBAA,40.0724,116.583,Beijing Capital Airport,,12467,Beijing,Airports,Asia/Shanghai,http://www.bcia.com.cn,12511989
2,3,EUR,LHR,"LONDON, GB (LHR)","LONDON, GB (LHR) Airport",69433565,65884143,5.1,105,Hounslow,United Kingdom,227,80,,EGLL,51.4703,-0.45342,London Heathrow Airport,+44 (0)8700 000698,12802,England,Airports,Europe/London,http://www.heathrowairport.com,23382429
3,4,NAM,ORD,"CHICAGO IL, US (ORD)","CHICAGO IL, US (ORD) Airport",66561023,66904971,-0.5,85,Chicago,United States,222,668,,KORD,41.9796,-87.8825,Chicago O'Hare International Airport,,13000,Illinois,Airports,America/Chicago,http://www.flychicago.com/ohare/home.asp,12521200
4,5,ASP,HND,"TOKYO, JP (HND)","TOKYO, JP (HND) Airport",62263025,64117894,-3.0,19,Tokyo,Japan,55,,,KHND,35.5533,139.771,Tokyo International Airport,,,Tokyo Prefecture,Airports,Asia/Tokyo,http://www.tokyo-airport-bldg.co.jp/,23388311
5,6,NAM,LAX,"LOS ANGELES CA, US (LAX)","LOS ANGELES CA, US (LAX) Airport",61848449,58995672,4.6,99,Los Angeles,United States,200,126,,KLAX,33.9456,-118.391,Los Angeles International Airport,,12091,California,Airports,America/Los_Angeles,,12520706
6,7,EUR,CDG,"PARIS, FR (CDG)","PARIS, FR (CDG) Airport",60970551,58166563,4.6,131,Le Mesnil-Amelot,France,310,387,,LFPG,49.0175,2.5564,Charles de Gaulle International Airport,,11811,Ile-de-France,Airports,Europe/Paris,,22140453
7,8,NAM,DFW,"DALLAS/FORT WORTH TX, US (DFW)","DALLAS/FORT WORTH TX, US (DFW) Airport",57806152,56905066,1.6,62,Dallas,United States,179,603,,KDFW,32.9222,-97.0409,Fort Worth International Airport,,11388,Texas,Airports,America/Chicago,,12519786
8,9,EUR,FRA,"FRANKFURT, DE (FRA)","FRANKFURT, DE (FRA) Airport",56436255,53009221,6.1,131,Frankfurt,Germany,337,364,,EDDF,50.0483,8.57041,Frankfurt International Airport,+49 69 690 0,13123,Hesse,Airports,Europe/Berlin,http://www.airportcity-frankfurt.de,22981759
9,10,ASP,HKG,"HONG KONG, HK (HKG)","HONG KONG, HK (HKG) Airport",53314213,50359536,5.5,87,Hong Kong,Hong Kong,131,19,,VHHH,22.3124,113.929,Hong Kong International Airport,+852 2188 7111,12467,Hong Kong Island,Airports,Asia/Hong_Kong,http://www.hongkongairport.com/,24875607
10,11,NAM,DEN,"DENVER CO, US (DEN)","DENVER CO, US (DEN) Airport",52699298,52209203,0.9,57,Denver,United States,162,5333,,KDEN,39.8396,-104.672,Denver International Airport,,12000,Colorado,Airports,America/Denver,,12523052
11,12,MEA,DXB,"DUBAI, AE (DXB)","DUBAI, AE (DXB) Airport",50977960,47180628,7.4,126,Dubai,United Arab Emirates,170,34,,OMDB,25.2509,55.3629,Dubai International Airport,+971 4 216 2525,13123,Dubai,Airports,Asia/Dubai,http://www.dubaiairport.com,23388362
12,13,ASP,CGK,"JAKARTA, ID (CGK)","JAKARTA, ID (CGK) Airport",50446618,43981022,14.7,45,Tangerang,Indonesia,51,34,,WIII,-6.11964,106.656,Jakarta International Airport,+62 (0)21 550 5179,12008,Banten,Airports,Asia/Jakarta,http://www.angkasapura2.co.id,23388291
13,14,EUR,AMS,"AMSTERDAM, NL (AMS)","AMSTERDAM, NL (AMS) Airport",49754910,45211749,9.1,118,Schiphol Zuid,Netherlands,284,-11,,EHAM,52.3122,4.77511,Schiphol Airport,+31-207940800,12467,North Holland,Airports,Europe/Amsterdam,http://www.schiphol.com/,22386730
14,15,EUR,MAD,"MADRID, ES (MAD)","MADRID, ES (MAD) Airport",49644302,49842726,-0.4,93,Madrid,Spain,186,1998,,LEMD,40.4684,-3.56769,Barajas Airport,00 34 902 404 704,13451,Madrid,Airports,Europe/Madrid,,12517539
15,16,ASP,BKK,"BANGKOK, TH (BKK)","BANGKOK, TH (BKK) Airport",47910744,42784967,10.7,113,Lak Si,Thailand,132,12,,VTBS,13.9144,100.608,Bangkok International Airport,,12139,Bangkok,Airports,Asia/Bangkok,http://www.airportthai.co.th/airportnew/bia/html/,12517747
16,17,NAM,JFK,"NEW YORK NY, US (JFK)","NEW YORK NY, US (JFK) Airport",47854283,46493667,2.8,100,Jamaica,United States,233,13,,KJFK,40.6437,-73.79,John F Kennedy International Airport,,14572,New York,Airports,America/New_York,,12520380
17,18,ASP,SIN,"SINGAPORE, SG (SIN)","SINGAPORE, SG (SIN) Airport",46543845,42038777,9.7,80,Singapore,Singapore,108,65,,WSSS,1.3578,103.991,Singapore Changi Airport,(65) 6542 1122,13200,South East,Airports,Asia/Singapore,http://www.changiairport.com.sg/,12517525
18,19,ASP,CAN,"GUANGZHOU, CN (CAN)","GUANGZHOU, CN (CAN) Airport",45400156,40975253,9.7,49,Guangzhou,China,111,45,,ZGGG,23.3925,113.299,Baiyun Airport,0086-020-86120000,11000,Guangdong,Airports,Asia/Chongqing,,12511984
19,20,NAM,LAS,"LAS VEGAS NV, US (LAS)","LAS VEGAS NV, US (LAS) Airport",41479572,39757359,4.2,64,Las Vegas,United States,130,2174,,KLAS,36.0806,-115.143,Mccarran International Airport,(702) 261-5211,12636,Nevada,Airports,America/Los_Angeles,http://www.mccarran.com,12520849
20,21,ASP,PVG,"SHANGHAI, CN (PVG)","SHANGHAI, CN (PVG) Airport",41450211,40387640,2.6,76,Huinan,China,131,,,KPVG,31.1156,121.803,Pudong International Airport,,,Shanghai,Airports,Asia/Shanghai,,23428057
21,22,NAM,SFO,"SAN FRANCISCO CA, US (SFO)","SAN FRANCISCO CA, US (SFO) Airport",40907389,39254110,4.0,76,San Francisco,United States,147,12,,KSFO,37.6148,-122.392,San Francisco International Airport,(650) 821-8211,11870,California,Airports,America/Los_Angeles,http://www.flysfo.com,12521721
22,23,NAM,PHX,"PHOENIX AZ, US (PHX)","PHOENIX AZ, US (PHX) Airport",40565677,38552409,5.0,51,Phoenix,United States,108,1132,,KPHX,33.4376,-112.03,Sky Harbor International Airport,,11001,Arizona,Airports,America/Phoenix,http://phoenix.gov/Ahttp://phoenix.gov/aviation,12521872
23,24,NAM,IAH,"HOUSTON TX, US (IAH)","HOUSTON TX, US (IAH) Airport",40170844,40475669,-0.8,54,Houston,United States,210,98,,KIAH,29.9784,-95.3424,George Bush Intercontinental Airport,,12001,Texas,Airports,America/Chicago,,12520245
24,25,NAM,CLT,"CHARLOTTE NC, US (CLT)","CHARLOTTE NC, US (CLT) Airport",39043708,38143078,2.3,39,Charlotte,United States,133,749,,KCLT,35.2226,-80.946,Douglas International Airport,,10000,North Carolina,Airports,America/New_York,http://www.charmeck.org/Departments/Airport/Home.htm,12519519
25,26,NAM,MIA,"MIAMI FL, US (MIA)","MIAMI FL, US (MIA) Airport",38314389,35698025,6.8,91,Miami,United States,167,11,customerservice@miami-airport.com,KMIA,25.7953,-80.2727,Miami International Airport,(305) 876-7000,13000,Florida,Airports,America/New_York,http://www.miami-airport.com,12520923
26,27,EUR,MUC,"MUNICH, DE (MUC)","MUNICH, DE (MUC) Airport",37763701,34721605,8.1,95,Oberding,Germany,213,1737,,EDDM,48.354,11.7816,Franz-Josef-Strauss Airport,,13100,Bavaria,Airports,Europe/Berlin,http://www.munich-airport.de/,22923040
27,28,ASP,KUL,"KUALA LUMPUR, MY (KUL)","KUALA LUMPUR, MY (KUL) Airport",37670586,34087636,9.5,68,Sepang,Malaysia,101,,,WMKK,2.77859,101.689,Kuala Lumpur International Airport,+603 8776 4386,4000,Putrajaya,Airports,Asia/Kuala_Lumpur,http://www.klia.com.my/,28752278
28,29,EUR,FCO,"ROME, IT (FCO)","ROME, IT (FCO) Airport",37651222,36227778,3.8,124,Rome,Italy,181,14,,LIRF,41.8026,12.2551,Leonardo da Vinci International Airport,+39 06 65951,12795,Lazio,Airports,Europe/Rome,http://www.adr.it/,22318195
29,30,EUR,IST,"ISTANBUL, TR (IST)","ISTANBUL, TR (IST) Airport",37398221,32165817,14.0,79,Bakırköy,Turkey,157,157,,LTBA,40.9857,28.8163,Ataturk Hava Limani Airport,,9842,Istanbul,Airports,Europe/Istanbul,,23388365
30,31,ASP,SYD,"SYDNEY, AU (SYD)","SYDNEY, AU (SYD) Airport",36022614,35992172,0.1,55,Sydney,Australia,84,21,,YSSY,-33.9344,151.168,Kingsford Smith Airport,,13000,New South Wales,Airports,Australia/Sydney,,23388205
31,32,NAM,MCO,"ORLANDO FL, US (MCO)","ORLANDO FL, US (MCO) Airport",35356991,34877507,1.4,63,Orlando,United States,106,96,,KMCO,28.4418,-81.3115,Orlando International Airport,,12004,Florida,Airports,America/New_York,,12521243
32,33,ASP,ICN,"INCHEON, KR (ICN)","INCHEON, KR (ICN) Airport",35191825,33605579,4.5,76,Incheon,South Korea,139,6,,RKSI,37.4534,126.657,New Incheon International Airport,,12300,Incheon,Airports,Asia/Seoul,http://www.airport.or.kr/eng/airport/,24554859
33,34,ASP,DEL,"NEW DELHI, IN (DEL)","NEW DELHI, IN (DEL) Airport",34729467,28531607,17.8,70,New Delhi,India,95,776,,VIDP,28.5603,77.1027,Indira Gandhi International Airport,,12500,Madhya Pradesh,Airports,Asia/Kolkata,,12513599
34,35,EUR,BCN,"BARCELONA, ES (BCN)","BARCELONA, ES (BCN) Airport",34387597,29197135,15.1,90,El Prat de Llobregat,Spain,145,15,,LEBL,41.3006,2.07976,Barcelona International Airport,,11001,Catalonia,Airports,Europe/Madrid,http://www.aena.es,22411879
35,36,EUR,LGW,"LONDON, GB (LGW)","LONDON, GB (LGW) Airport",33668048,31378644,6.8,71,Horley,United Kingdom,227,202,,,51.1568,-0.16988,London Gatwick Airport,0870 000 2468,10364,England,Airports,Europe/London,http://www.gatwickairport.com/,23387567
36,37,NAM,EWR,"NEWARK NJ, US (EWR)","NEWARK NJ, US (EWR) Airport",33577154,33133852,1.3,64,Newark,United States,220,18,,KEWR,40.6924,-74.1843,Newark International Airport,,11000,New Jersey,Airports,America/New_York,,12521127
37,38,NAM,YYZ,"TORONTO ON, CA (YYZ)","TORONTO ON, CA (YYZ) Airport",33434199,31937895,4.5,66,Mississauga,Canada,176,569,,CYYZ,43.685,-79.6142,Toronto Lester B Pearson International Airport,,11120,Ontario,Airports,America/Toronto,http://www.gtaa.com/,12511883
38,39,ASP,SHA,"SHANGHAI, CN (SHA)","SHANGHAI, CN (SHA) Airport",33112442,31298812,5.5,21,Shanghai,China,60,15,,ZSSS,31.1865,121.34,Hongqiao Airport,,10500,Shanghai,Airports,Asia/Shanghai,,23388248
39,40,NAM,MSP,"MINNEAPOLIS MN, US (MSP)","MINNEAPOLIS MN, US (MSP) Airport",33074443,32749649,1.0,41,St. Paul,United States,171,841,,KMSP,44.8793,-93.1987,Minneapolis St Paul International Airport,,11006,Minnesota,Airports,America/Chicago,http://mspairport.com,12520966
40,41,NAM,SEA,"SEATTLE WA, US (SEA)","SEATTLE WA, US (SEA) Airport",32820060,31553166,3.9,59,Seattle,United States,109,429,,KSEA,47.4405,-122.296,Tacoma International Airport,,11900,Washington,Airports,America/Los_Angeles,http://www.portseattle.org/seatac/,12522066
41,42,NAM,DTW,"DETROIT MI, US (DTW)","DETROIT MI, US (DTW) Airport",32419181,32377064,0.1,45,Detroit,United States,161,639,,KDTW,42.2327,-83.3412,Detroit Metropolitan Wayne County Airport,,10501,Michigan,Airports,America/New_York,http://www.metroairport.com/,12519481
42,43,NAM,PHL,"PHILADELPHIA PA, US (PHL)","PHILADELPHIA PA, US (PHL) Airport",30839130,30775271,0.2,51,Philadelphia,United States,133,21,,KPHL,39.8768,-75.2419,Philadelphia International Airport,,10500,Pennsylvania,Airports,America/New_York,http://www.phl.org,12521360
43,44,ASP,BOM,"MUMBAI, IN (BOM)","MUMBAI, IN (BOM) Airport",30439122,28137797,7.6,60,Mumbai,India,86,36,,VABB,19.0932,72.8654,Chhatrapati Shivaji International Airport,,11446,Maharashtra,Airports,Asia/Kolkata,http://www.airportsindia.org.in/aai/mumbai/index.htm,12513559
44,45,LAC,GRU,"SÃO PAULO, BR (GRU)","SÃO PAULO, BR (GRU) Airport",30371131,27432346,9.7,35,Guarulhos,Brazil,63,2459,,SBGR,-23.435,-46.4728,Governador Andre Franco Montoro International Ai,,12140,Sao Paulo,Airports,America/Sao_Paulo,,12511170
45,46,ASP,MNL,"MANILA, PH (MNL)","MANILA, PH (MNL) Airport",29551394,27148724,8.1,35,Parañaque,Philippines,77,75,,RPLL,14.5114,121.016,Ninoy Aquino International Airport,,11004,National Capital Region,Airports,Asia/Manila,,12515637
46,47,ASP,CTU,"CHENGDU, CN (CTU)","CHENGDU, CN (CTU) Airport",29073990,25805815,11.2,30,Chengdu,China,62,,chengduair@cdairport.com,ZUUU,30.5775,103.941,Chengdushuang Liu Airport,0086-28-85702649 / 0086-,,Sichuan,Airports,Asia/Shanghai,http://www.cdairport.com/cdairport/en_front/index.jsp,12512010
47,48,NAM,BOS,"BOSTON MA, US (BOS)","BOSTON MA, US (BOS) Airport",28866313,27429152,5.0,68,Boston,United States,113,20,,KBOS,42.3717,-71.0281,Gen E L Logan International Airport,,10081,Massachusetts,Airports,America/New_York,,12519874
48,49,ASP,SZX,"SHENZHEN, CN (SZX)","SHENZHEN, CN (SZX) Airport",28245745,26713610,5.4,31,Shenzhen,China,81,3,sacabd@public.szptt.net.cn,,22.5333,113.967,Shenzhen Airport,0086-755-27776047,3400,Guangdong,Airports,Asia/Shanghai,http://www.szairport.com/index_e.asp,12523239
49,50,ASP,MEL,"MELBOURNE, AU (MEL)","MELBOURNE, AU (MEL) Airport",28060111,27731252,1.2,44,Melbourne,Australia,53,434,,YMML,-37.6759,144.844,Melbourne International Airport,,12000,Victoria,Airports,Australia/Melbourne,,23388202
50,51,ASP,NRT,"TOKYO, JP (NRT)","TOKYO, JP (NRT) Airport",28055772,33815906,-20.5,63,Narita-shi,Japan,97,141,,RJAA,35.7491,140.389,Narita International Airport,,13123,Chiba Prefecture,Airports,Asia/Tokyo,http://www.narita-airport.jp,12513999
51,52,EUR,ORY,"PARIS, FR (ORY)","PARIS, FR (ORY) Airport",27139076,25203787,7.1,52,Paris,France,138,292,,LFPO,48.7261,2.36411,Paris Orly Airport,,11975,Ile-de-France,Airports,Europe/Paris,http://www.adp.fr,22144181
52,53,LAC,MEX,"MEXICO CITY, MX (MEX)","MEXICO CITY, MX (MEX) Airport",26368861,24130535,8.5,42,Mexico City,Mexico,98,7341,,MMMX,19.4344,-99.0742,Lic Benito Juarez International Airport,,12619,Distrito Federal,Airports,America/Mexico_City,http://www.aicm.com.mx/,12514910
53,54,EUR,DME,"MOSCOW, RU (DME)","MOSCOW, RU (DME) Airport",25701610,22253529,13.4,71,Podol'sk,Russia,165,512,,UUDD,55.4025,37.9136,Domodedovo Airport,,,Moskovskaya Oblast,Airports,Europe/Moscow,http://www.domodedovo.ru,12515946
54,55,EUR,AYT,"ANTALYA, TR (AYT)","ANTALYA, TR (AYT) Airport",25183142,21857524,13.2,24,Antalya,Turkey,51,167,,LTAI,36.9022,30.7917,Antalya Airport,,11243,Antalya,Airports,Europe/Istanbul,,12517869
55,56,ASP,TPE,"TAIPEI, TW (TPE)","TAIPEI, TW (TPE) Airport",24947551,25114413,-0.7,43,Taoyuan City,Taiwan,52,33,,RCTP,25.081,121.237,Taiwan Taoyuan International Airport,+886 (03) 398-2036,3660,Taiwan Province,Airports,Asia/Taipei,http://www.cksairport.gov.tw/,2306254
56,57,EUR,ZRH,"ZURICH, CH (ZRH)","ZURICH, CH (ZRH) Airport",24283941,22826942,6.0,79,Kloten,Switzerland,161,1416,,LSZH,47.454,8.56137,Zurich International Airport,+41 43 816 22 11,12139,Canton of Zurich,Airports,Europe/Zurich,http://www.zurich-airport.com,22442771
57,58,NAM,LGA,"NEW YORK NY, US (LGA)","NEW YORK NY, US (LGA) Airport",24028400,23980687,0.2,30,Flushing,United States,82,22,,KLGA,40.7731,-73.8756,LaGuardia Airport,,7000,New York,Airports,America/New_York,,12520509
58,59,NAM,FLL,"FORT LAUDERDALE, FL, US (FLL)","FORT LAUDERDALE, FL, US (FLL) Airport",23348804,22406810,4.0,46,Dania Beach,United States,108,11,,KFLL,26.0722,-80.1354,Fort Lauderdale Hollywood International Airport,,9001,Florida,Airports,America/New_York,,12519836
59,60,NAM,IAD,"WASHINGTON, DC, US (IAD)","WASHINGTON, DC, US (IAD) Airport",23056291,23447177,-1.7,63,Washington,United States,150,313,,KIAD,38.9556,-77.4484,Dulles International Airport,703-572-6001,11501,Virginia,Airports,America/New_York,http://www.metwashairports.com/Dulles/,12519544
60,61,EUR,PMI,"PALMA DE MALLORCA, ES (PMI)","PALMA DE MALLORCA, ES (PMI) Airport",22723837,21110092,7.1,57,Palma,Spain,109,15,,LEPA,39.5495,2.73188,Palma de Mallorca Airport,,10728,Balearic Islands,Airports,Europe/Madrid,,23281165
61,62,EUR,CPH,"COPENHAGEN, DK (CPH)","COPENHAGEN, DK (CPH) Airport",22673477,21452464,5.4,76,Kastrup,Denmark,136,17,,EKCH,55.6205,12.6495,Copenhagen Airport,,11811,Hovedstaden,Airports,Europe/Copenhagen,http://www.cph.dk,22851127
62,63,EUR,SVO,"MOSCOW, RU (SVO)","MOSCOW, RU (SVO) Airport",22555309,19329185,14.3,48,Zelenograd,Russia,140,623,,UUEE,55.9621,37.4189,Sheremtyevo Airport,,12139,Moskovskaya Oblast,Airports,Europe/Moscow,http://www.sheremetyevo-airport.ru,12516860
63,64,NAM,BWI,"BALTIMORE MD, US (BWI)","BALTIMORE MD, US (BWI) Airport",22395638,21951650,2.0,39,Baltimore,United States,79,146,,KBWI,39.1841,-76.6745,Baltimore-Washington International Thurgood Mars,410-859-7111,9519,Maryland,Airports,America/New_York,http://www.bwiairport.com,12522341
64,65,ASP,KMG,"KUNMING, CN (KMG)","KUNMING, CN (KMG) Airport",22272776,20194754,9.3,27,Kunming,China,62,6235,,ZPPP,24.966,102.733,Wuchia Pa Airport,,9840,Yunnan,Airports,Asia/Shanghai,,12512231
65,66,EUR,VIE,"VIENNA, AT (VIE)","VIENNA, AT (VIE) Airport",21106330,19691206,6.7,96,Klein-Neusiedl,Austria,183,600,,LOWW,48.1036,16.5804,Vienna Schwechat International Airport,,11811,Lower Austria,Airports,Europe/Vienna,http://www.viennaairport.com,22022012
66,67,EUR,OSL,"OSLO, NO (OSL)","OSLO, NO (OSL) Airport",21092873,19091113,9.5,59,Gardermoen,Norway,116,681,,ENGM,60.1947,11.1005,Oslo Gardermoen Airport,+47 64812000,11811,Akershus Fylke,Airports,Europe/Oslo,http://www.osl.no,12515119
67,68,MEA,JED,"JEDDAH, SA (JED)","JEDDAH, SA (JED) Airport",20929686,17913975,14.4,54,Jeddah,Saudi Arabia,106,48,,OEJN,21.706,39.1386,King Abdul Aziz International Airport,,12467,Makka,Airports,Asia/Riyadh,,23388353
68,69,ASP,BNE,"BRISBANE, AU (BNE)","BRISBANE, AU (BNE) Airport",20589207,20020966,2.8,43,Brisbane,Australia,62,13,,YBBN,-27.3589,153.122,Brisbane International Airport,+61 7 3406 3000,11483,Queensland,Airports,Australia/Brisbane,http://www.bne.com.au/,23388207
69,70,NAM,SLC,"SALT LAKE CITY UT, US (SLC)","SALT LAKE CITY UT, US (SLC) Airport",20440913,20987646,-2.7,38,Salt Lake City,United States,104,4226,,KSLC,40.7862,-111.982,Salt Lake City International Airport,,12003,Utah,Airports,America/Denver,,12521709
70,71,EUR,DUS,"DÜSSELDORF, DE (DUS)","DÜSSELDORF, DE (DUS) Airport",20339466,18988489,6.6,74,Dusseldorf,Germany,167,147,,EDDL,51.2794,6.76481,Dusseldorf International Airport,,9842,North Rhine-Westphalia,Airports,Europe/Berlin,http://www.duesseldorf-international.de/,23024911
71,72,LAC,BOG,"BOGOTA, CO (BOG)","BOGOTA, CO (BOG) Airport",20327901,18827118,7.4,30,Fontibón,Colombia,64,8356,,SKBO,4.69895,-74.1435,Eldorado International Airport,,12467,Distrito Especial,Airports,America/Bogota,http://www.aerocivil.gov.co/plan%20maestro/index.htm,12512375
72,73,EUR,MXP,"MILAN, IT (MXP)","MILAN, IT (MXP) Airport",19291427,18947808,1.8,109,Cardano al Campo,Italy,163,768,,LIMC,45.6314,8.72284,Malpensa International Airport,,12844,Lombardy,Airports,Europe/Rome,http://www.sea-aeroportimilano.it/,22306432
73,74,AFR,JNB,"JOHANNESBURG, ZA (JNB)","JOHANNESBURG, ZA (JNB) Airport",19114384,18565250,2.9,63,Johannesburg,South Africa,89,5512,,FAJS,-26.1219,28.2467,OR Tambo International Airport,+27 (0)11 921 6262,14495,Gauteng,Airports,Africa/Johannesburg,http://www.airports.co.za/home.asp?pid=1147,12517424
74,75,EUR,ARN,"STOCKHOLM, SE (ARN)","STOCKHOLM, SE (ARN) Airport",19088363,16988614,11.0,76,Märst,Sweden,126,123,,ESSA,59.6521,17.9317,Arlanda Airport,+46 8 797 6000,10827,Stockholm,Airports,Europe/Stockholm,http://www.arlanda.se,12517610
75,76,EUR,MAN,"MANCHESTER, GB (MAN)","MANCHESTER, GB (MAN) Airport",18991503,17873023,5.9,79,Manchester,United Kingdom,129,256,,EGCC,53.365,-2.27089,Manchester International Airport,+44 (0) 161 489 3000,10000,England,Airports,Europe/London,http://www.manchesterairport.co.uk,22478032
76,77,NAM,MDW,"CHICAGO IL, US (MDW)","CHICAGO IL, US (MDW) Airport",18882549,17647771,6.5,8,Chicago,United States,55,619,,KMDW,41.7875,-87.7416,Chicago Midway International Airport,,6519,Illinois,Airports,America/Chicago,,12519178
77,78,NAM,DCA,"WASHINGTON DC, US (DCA)","WASHINGTON DC, US (DCA) Airport",18811335,18105802,3.8,42,Arlington,United States,77,16,,KDCA,38.849,-77.0438,Washington National Airport,703 417 80 00,6869,Virginia,Airports,America/New_York,http://metwashairports.com/reagan,12522343
78,79,EUR,BRU,"BRUSSELS, BE (BRU)","BRUSSELS, BE (BRU) Airport",18756885,17149416,8.6,97,Bruxelles,Belgium,186,184,,EBBR,50.899,4.4859,Brussels Airport,+32 (0) 900 7 0000,9790,Vlaams Brabant,Airports,Europe/Brussels,http://www.brusselsairport.be,22103751
79,80,EUR,DUB,"DUBLIN, IE (DUB)","DUBLIN, IE (DUB) Airport",18735944,18431678,1.6,54,Cloghran,Ireland,167,222,,EIDW,53.4272,-6.24418,Dublin Airport,+353 1 8141111,7499,,Airports,Europe/Dublin,http://www.dub.aero,23388266
80,81,ASP,GMP,"SEOUL, KR (GMP)","SEOUL, KR (GMP) Airport",18513982,17575244,5.1,9,Seoul,South Korea,10,,,RKSS,37.5563,126.793,Gimpo International Airport,,,Seoul,Airports,Asia/Seoul,,23388324
81,82,MEA,DOH,"DOHA, QA (DOH)","DOHA, QA (DOH) Airport",18202649,15863292,12.9,43,Doha,Qatar,87,35,,OTBD,25.2592,51.5658,Doha International Airport,,15000,Doha,Airports,Asia/Qatar,,12515487
82,83,EUR,STN,"LONDON, GB (STN)","LONDON, GB (STN) Airport",18046777,18574204,-2.9,25,Stansted Mountfitchet,United Kingdom,168,347,,EGSS,51.8894,0.26151,London Stansted International Airport,,10000,England,Airports,Europe/London,http://www.stanstedairport.com/,22489156
83,84,ASP,HGH,"HANGZHOU, CN (HGH)","HANGZHOU, CN (HGH) Airport",17512034,17068585,2.5,28,Hangzhou,China,46,,,ZSHC,30.3332,120.234,Jianoiao Airport,,,Zhejiang,Airports,Asia/Shanghai,,12512090
84,85,ASP,CJU,"JEJU, KR (CJU)","JEJU, KR (CJU) Airport",17202278,15724770,8.6,8,Jeju-Si,South Korea,19,126,,RKPC,33.5056,126.495,Cheju International Airport,,9800,Jaeju-Do,Airports,Asia/Seoul,,12514202
85,86,NAM,YVR,"VANCOUVER BC, CA (YVR)","VANCOUVER BC, CA (YVR) Airport",17193080,16926870,1.5,54,Richmond,Canada,92,9,,CYVR,49.1931,-123.172,Vancouver International Airport,,11500,British Columbia,Airports,America/Vancouver,http://www.yvr.ca/,12511894
86,87,EUR,TXL,"BERLIN, DE (TXL)","BERLIN, DE (TXL) Airport",16919820,15025600,11.2,70,Berlin,Germany,101,121,,EDDT,52.5548,13.289,Berlin-Tegel International Airport,"0180 5000 186 (0,12 Euro",9918,Berlin,Airports,Europe/Berlin,http://www.berlin-airport.de/PubEnglish/PubTegel/index.php?,22164086
87,88,NAM,SAN,"SAN DIEGO CA, US (SAN)","SAN DIEGO CA, US (SAN) Airport",16836027,16901322,-0.4,57,San Diego,United States,51,15,,KSAN,32.7299,-117.195,San Diego International Airport,(619) 231 2100,9400,California,Airports,America/Los_Angeles,http://www.san.org/,12520660
88,89,NAM,TPA,"TAMPA FL, US (TPA)","TAMPA FL, US (TPA) Airport",16732051,16645765,0.5,48,Tampa,United States,74,26,,KTPA,27.9744,-82.5356,Tampa International Airport,1(813)870-8770,11002,Florida,Airports,America/New_York,http://www.tampaairport.com/,12522077
89,90,LAC,CGH,"SÃO PAULO, BR (CGH)","SÃO PAULO, BR (CGH) Airport",16687731,15441789,7.5,6,Sao Paulo,Brazil,26,2631,,SBSP,-23.6285,-46.6589,Congonhas International Airport,,6362,Sao Paulo,Airports,America/Sao_Paulo,,23388212
90,91,LAC,BSB,"BRASILIA, BR (BSB)","BRASILIA, BR (BSB) Airport",15801122,14824113,6.2,10,Lago Sul,Brazil,32,3473,,SBBR,-15.8622,-47.9122,Juscelino Kubitschek International Airport,,10499,Distrito Federal,Airports,America/Sao_Paulo,http://www.infraero.gov.br/,12511058
91,92,ASP,CTS,"SAPPORO, JP (CTS)","SAPPORO, JP (CTS) Airport",15773073,16745235,-6.2,28,Chitose-shi,Japan,30,87,,RJCC,42.7757,141.691,New Chitose Airport,,9843,Hokkaido Prefecture,Airports,Asia/Tokyo,,12523091
92,93,ASP,XMN,"XIAMEN, CN (XMN)","XIAMEN, CN (XMN) Airport",15753183,13248367,15.9,33,Xiamen,China,55,59,,ZSAM,24.5333,118.117,Xiamen Airport,,7054,Fujian,Airports,Asia/Shanghai,,12523266
93,94,MEA,RUH,"RIYADH, SA (RUH)","RIYADH, SA (RUH) Airport",15432950,14136837,8.4,35,Riyadh,Saudi Arabia,71,2082,,OERK,24.9625,46.7078,King Khalid International Airport,,13287,Ar Riyad,Airports,Asia/Riyadh,,12517349
94,95,ASP,FUK,"FUKUOKA, JP (FUK)","FUKUOKA, JP (FUK) Airport",15431078,16404617,-6.3,31,Fukuoka-shi,Japan,36,30,,RJFF,33.5971,130.443,Fukuoka Airport,,9250,Fukuoka Prefecture,Airports,Asia/Tokyo,,23388316
95,96,LAC,GIG,"RIO DE JANEIRO, BR (GIG)","RIO DE JANEIRO, BR (GIG) Airport",15184350,12605637,17.0,25,Rio de Janeiro,Brazil,32,30,,SBGL,-22.8094,-43.25,Rio de Janeiro-Antonio Carlos Jobim Internationa,+55(21)3398-5050,13123,Rio de Janeiro,Airports,America/Sao_Paulo,,12511292
96,97,EUR,HEL,"HELSINKI, FI (HEL)","HELSINKI, FI (HEL) Airport",14851675,12866036,13.4,53,Vantaa,Finland,104,179,,EFHK,60.3243,24.9688,Helsinki Vantaa Airport,+358 200 14636,11286,Southern Finland,Airports,Europe/Helsinki,http://www.helsinki-vantaa.fi/,12512766
97,98,EUR,LIS,"LISBON, PT (LIS)","LISBON, PT (LIS) Airport",14791260,14058751,5.0,57,Lisbon,Portugal,92,374,,LPPT,38.7701,-9.13775,Lisbon Airport,+351 218 413 500,12484,Lisbon,Airports,Europe/Lisbon,http://www.ana.pt,22405520
98,99,EUR,ATH,"ATHENS, GR (ATH)","ATHENS, GR (ATH) Airport",14428032,15390156,-6.7,81,Athens,Greece,117,308,,LGAV,37.8937,23.7235,Eleftherios Venizelos International Airport,0030 210 353 0001,13123,Attiki,Airports,Europe/Athens,http://www.aia.gr,12513286
99,100,ASP,AKL,"AUCKLAND, NZ (AKL)","AUCKLAND, NZ (AKL) Airport",14012329,13705116,2.2,35,Manukau City,New Zealand,52,23,,NZAA,-37.0085,174.782,Auckland International Airport,+64 9 256 8899,10800,Auckland,Airports,Pacific/Auckland,http://www.auckland-airport.co.nz/,12515151
